STARLINK-3597           
1 51898U 22022AY  26057.26619365  .00000357  00000+0  40500-4 0  9994
2 51898  53.2181  50.4015 0001439  92.1552 267.9605 15.08837634221576
STARLINK-3700           
1 51956U 22025A   26057.31669866  .00000582  00000+0  32510-4 0  9991
2 51956  53.1607  66.2005 0001199  94.5843 265.5294 15.29359784219437
STARLINK-3694           
1 51957U 22025B   26057.25815317 -.00000443  00000+0 -10855-4 0  9995
2 51957  53.0545  87.1886 0001088  98.1845 261.9268 15.06400451219126
STARLINK-3692           
1 51958U 22025C   26057.26572229  .00000116  00000+0  16043-4 0  9999
2 51958  53.1611  66.6047 0001316  93.9434 266.1717 15.30191155219428
STARLINK-3704           
1 51959U 22025D   26057.26183307  .00001251  00000+0  10288-3 0  9990
2 51959  53.0549  87.1465 0001202  92.6368 267.4759 15.06392196219124
STARLINK-3691           
1 51960U 22025E   26057.25443690  .00002252  00000+0  17000-3 0  9996
2 51960  53.0563  87.1829 0001230  99.0100 261.1028 15.06408234219123
STARLINK-3697           
1 51962U 22025G   26057.25002315  .01307333  00000+0  47128-1 0  9994
2 51962  53.1344  77.1157 0001192 111.4277  48.4327 15.24984427  5839
STARLINK-3675           
1 51963U 22025H   26057.26256572 -.00000172  00000+0  63263-5 0  9995
2 51963  53.1607  66.6353 0001386  92.8161 267.2998 15.30190841219425
STARLINK-3690           
1 51964U 22025J   26057.25002315  .00048832  00000+0  18997-2 0  9994
2 51964  53.1352  77.3334 0001345  58.7842  60.5807 15.25567215  5831
STARLINK-3696           
1 51965U 22025K   26057.25078985  .00000254  00000+0  35940-4 0  9996
2 51965  53.0547  87.1957 0001322  82.6844 277.4295 15.06383949219128
STARLINK-3699           
1 51966U 22025L   26057.28992915  .00000135  00000+0  27980-4 0  9991
2 51966  53.0552  82.0036 0001349  92.2654 267.8490 15.06397764219201
STARLINK-3681           
1 51968U 22025N   26057.25002315  .00061853  00000+0  24245-2 0  9999
2 51968  53.1339  77.2635 0001369  93.7179 115.8008 15.25207313  5759
STARLINK-3680           
1 51969U 22025P   26057.25002315  .00857037  00000+0  30049-1 0  9995
2 51969  53.1423  77.3891 0001731  69.4584  16.3762 15.26639731  5781
STARLINK-3677           
1 51970U 22025Q   26057.28625538  .00000039  00000+0  21541-4 0  9990
2 51970  53.0553  82.0958 0001392  90.6785 269.4364 15.06395108219203
STARLINK-3669           
1 51971U 22025R   26057.25002315  .00047358  00000+0  19051-2 0  9996
2 51971  53.1304  77.3624 0001470  76.0092  32.4635 15.24462215  5837
STARLINK-3671           
1 51972U 22025S   26057.27519200  .00000896  00000+0  79027-4 0  9992
2 51972  53.0550  82.1261 0001182  89.2489 270.8635 15.06398930219205
