[{"OBJECT_NAME":"STARLINK-3597","OBJECT_ID":"2022-022AY","EPOCH":"2026-02-26T06:23:19.131360","MEAN_MOTION":15.08837634,"ECCENTRICITY":0.00014399,"INCLINATION":53.2181,"RA_OF_ASC_NODE":50.4015,"ARG_OF_PERICENTER":92.1552,"MEAN_ANOMALY":267.9605,"EPHEMERIS_TYPE":0,"CLASSIFICATION_TYPE":"U","NORAD_CAT_ID":51898,"ELEMENT_SET_NO":999,"REV_AT_EPOCH":22157,"BSTAR":4.0499608e-5,"MEAN_MOTION_DOT":3.57e-6,"MEAN_MOTION_DDOT":0},{"OBJECT_NAME":"STARLINK-3700","OBJECT_ID":"2022-025A","EPOCH":"2026-02-26T07:36:02.764224","MEAN_MOTION":15.29359784,"ECCENTRICITY":0.0001199,"INCLINATION":53.1607,"RA_OF_ASC_NODE":66.2005,"ARG_OF_PERICENTER":94.5843,"MEAN_ANOMALY":265.5294,"EPHEMERIS_TYPE":0,"CLASSIFICATION_TYPE":"U","NORAD_CAT_ID":51956,"ELEMENT_SET_NO":999,"REV_AT_EPOCH":21943,"BSTAR":3.2509845e-5,"MEAN_MOTION_DOT":5.82e-6,"MEAN_MOTION_DDOT":0},{"OBJECT_NAME":"STARLINK-3694","OBJECT_ID":"2022-025B","EPOCH":"2026-02-26T06:11:44.433888","MEAN_MOTION":15.06400451,"ECCENTRICITY":0.00010881,"INCLINATION":53.0545,"RA_OF_ASC_NODE":87.1886,"ARG_OF_PERICENTER":98.1845,"MEAN_ANOMALY":261.9268,"EPHEMERIS_TYPE":0,"CLASSIFICATION_TYPE":"U","NORAD_CAT_ID":51957,"ELEMENT_SET_NO":999,"REV_AT_EPOCH":21912,"BSTAR":-1.0855215e-5,"MEAN_MOTION_DOT":-4.43e-6,"MEAN_MOTION_DDOT":0},{"OBJECT_NAME":"STARLINK-3692","OBJECT_ID":"2022-025C","EPOCH":"2026-02-26T06:22:38.405856","MEAN_MOTION":15.30191155,"ECCENTRICITY":0.00013164,"INCLINATION":53.1611,"RA_OF_ASC_NODE":66.6047,"ARG_OF_PERICENTER":93.9434,"MEAN_ANOMALY":266.1717,"EPHEMERIS_TYPE":0,"CLASSIFICATION_TYPE":"U","NORAD_CAT_ID":51958,"ELEMENT_SET_NO":999,"REV_AT_EPOCH":21942,"BSTAR":1.6043133e-5,"MEAN_MOTION_DOT":1.16e-6,"MEAN_MOTION_DDOT":0},{"OBJECT_NAME":"STARLINK-3704","OBJECT_ID":"2022-025D","EPOCH":"2026-02-26T06:17:02.377248","MEAN_MOTION":15.06392196,"ECCENTRICITY":0.0001202,"INCLINATION":53.0549,"RA_OF_ASC_NODE":87.1465,"ARG_OF_PERICENTER":92.6368,"MEAN_ANOMALY":267.4759,"EPHEMERIS_TYPE":0,"CLASSIFICATION_TYPE":"U","NORAD_CAT_ID":51959,"ELEMENT_SET_NO":999,"REV_AT_EPOCH":21912,"BSTAR":0.00010287682,"MEAN_MOTION_DOT":1.251e-5,"MEAN_MOTION_DDOT":0},{"OBJECT_NAME":"STARLINK-3691","OBJECT_ID":"2022-025E","EPOCH":"2026-02-26T06:06:23.348160","MEAN_MOTION":15.06408234,"ECCENTRICITY":0.00012305,"INCLINATION":53.0563,"RA_OF_ASC_NODE":87.1829,"ARG_OF_PERICENTER":99.01,"MEAN_ANOMALY":261.1028,"EPHEMERIS_TYPE":0,"CLASSIFICATION_TYPE":"U","NORAD_CAT_ID":51960,"ELEMENT_SET_NO":999,"REV_AT_EPOCH":21912,"BSTAR":0.00017000163,"MEAN_MOTION_DOT":2.252e-5,"MEAN_MOTION_DDOT":0},{"OBJECT_NAME":"STARLINK-3697","OBJECT_ID":"2022-025G","EPOCH":"2026-02-26T06:00:02.000160","MEAN_MOTION":15.24984427,"ECCENTRICITY":0.00011925,"INCLINATION":53.1344,"RA_OF_ASC_NODE":77.1157,"ARG_OF_PERICENTER":111.4277,"MEAN_ANOMALY":48.4327,"EPHEMERIS_TYPE":0,"CLASSIFICATION_TYPE":"U","NORAD_CAT_ID":51962,"ELEMENT_SET_NO":999,"REV_AT_EPOCH":583,"BSTAR":0.047128383,"MEAN_MOTION_DOT":0.01307333,"MEAN_MOTION_DDOT":0},{"OBJECT_NAME":"STARLINK-3675","OBJECT_ID":"2022-025H","EPOCH":"2026-02-26T06:18:05.678208","MEAN_MOTION":15.30190841,"ECCENTRICITY":0.00013868,"INCLINATION":53.1607,"RA_OF_ASC_NODE":66.6353,"ARG_OF_PERICENTER":92.8161,"MEAN_ANOMALY":267.2998,"EPHEMERIS_TYPE":0,"CLASSIFICATION_TYPE":"U","NORAD_CAT_ID":51963,"ELEMENT_SET_NO":999,"REV_AT_EPOCH":21942,"BSTAR":6.326276e-6,"MEAN_MOTION_DOT":-1.72e-6,"MEAN_MOTION_DDOT":0},{"OBJECT_NAME":"STARLINK-3690","OBJECT_ID":"2022-025J","EPOCH":"2026-02-26T06:00:02.000160","MEAN_MOTION":15.25567215,"ECCENTRICITY":0.00013454,"INCLINATION":53.1352,"RA_OF_ASC_NODE":77.3334,"ARG_OF_PERICENTER":58.7842,"MEAN_ANOMALY":60.5807,"EPHEMERIS_TYPE":0,"CLASSIFICATION_TYPE":"U","NORAD_CAT_ID":51964,"ELEMENT_SET_NO":999,"REV_AT_EPOCH":583,"BSTAR":0.0018997355,"MEAN_MOTION_DOT":0.00048832,"MEAN_MOTION_DDOT":0},{"OBJECT_NAME":"STARLINK-3696","OBJECT_ID":"2022-025K","EPOCH":"2026-02-26T06:01:08.243040","MEAN_MOTION":15.06383949,"ECCENTRICITY":0.00013226,"INCLINATION":53.0547,"RA_OF_ASC_NODE":87.1957,"ARG_OF_PERICENTER":82.6844,"MEAN_ANOMALY":277.4295,"EPHEMERIS_TYPE":0,"CLASSIFICATION_TYPE":"U","NORAD_CAT_ID":51965,"ELEMENT_SET_NO":999,"REV_AT_EPOCH":21912,"BSTAR":3.5940292e-5,"MEAN_MOTION_DOT":2.54e-6,"MEAN_MOTION_DDOT":0},{"OBJECT_NAME":"STARLINK-3699","OBJECT_ID":"2022-025L","EPOCH":"2026-02-26T06:57:29.878560","MEAN_MOTION":15.06397764,"ECCENTRICITY":0.0001349,"INCLINATION":53.0552,"RA_OF_ASC_NODE":82.0036,"ARG_OF_PERICENTER":92.2654,"MEAN_ANOMALY":267.849,"EPHEMERIS_TYPE":0,"CLASSIFICATION_TYPE":"U","NORAD_CAT_ID":51966,"ELEMENT_SET_NO":999,"REV_AT_EPOCH":21920,"BSTAR":2.7979724e-5,"MEAN_MOTION_DOT":1.35e-6,"MEAN_MOTION_DDOT":0},{"OBJECT_NAME":"STARLINK-3681","OBJECT_ID":"2022-025N","EPOCH":"2026-02-26T06:00:02.000160","MEAN_MOTION":15.25207313,"ECCENTRICITY":0.00013696,"INCLINATION":53.1339,"RA_OF_ASC_NODE":77.2635,"ARG_OF_PERICENTER":93.7179,"MEAN_ANOMALY":115.8008,"EPHEMERIS_TYPE":0,"CLASSIFICATION_TYPE":"U","NORAD_CAT_ID":51968,"ELEMENT_SET_NO":999,"REV_AT_EPOCH":575,"BSTAR":0.0024245232,"MEAN_MOTION_DOT":0.00061853,"MEAN_MOTION_DDOT":0},{"OBJECT_NAME":"STARLINK-3680","OBJECT_ID":"2022-025P","EPOCH":"2026-02-26T06:00:02.000160","MEAN_MOTION":15.26639731,"ECCENTRICITY":0.00017318,"INCLINATION":53.1423,"RA_OF_ASC_NODE":77.3891,"ARG_OF_PERICENTER":69.4584,"MEAN_ANOMALY":16.3762,"EPHEMERIS_TYPE":0,"CLASSIFICATION_TYPE":"U","NORAD_CAT_ID":51969,"ELEMENT_SET_NO":999,"REV_AT_EPOCH":578,"BSTAR":0.030049218,"MEAN_MOTION_DOT":0.00857037,"MEAN_MOTION_DDOT":0},{"OBJECT_NAME":"STARLINK-3677","OBJECT_ID":"2022-025Q","EPOCH":"2026-02-26T06:52:12.464832","MEAN_MOTION":15.06395108,"ECCENTRICITY":0.00013923,"INCLINATION":53.0553,"RA_OF_ASC_NODE":82.0958,"ARG_OF_PERICENTER":90.6785,"MEAN_ANOMALY":269.4364,"EPHEMERIS_TYPE":0,"CLASSIFICATION_TYPE":"U","NORAD_CAT_ID":51970,"ELEMENT_SET_NO":999,"REV_AT_EPOCH":21920,"BSTAR":2.1540685e-5,"MEAN_MOTION_DOT":3.9e-7,"MEAN_MOTION_DDOT":0},{"OBJECT_NAME":"STARLINK-3669","OBJECT_ID":"2022-025R","EPOCH":"2026-02-26T06:00:02.000160","MEAN_MOTION":15.24462215,"ECCENTRICITY":0.000147,"INCLINATION":53.1304,"RA_OF_ASC_NODE":77.3624,"ARG_OF_PERICENTER":76.0092,"MEAN_ANOMALY":32.4635,"EPHEMERIS_TYPE":0,"CLASSIFICATION_TYPE":"U","NORAD_CAT_ID":51971,"ELEMENT_SET_NO":999,"REV_AT_EPOCH":583,"BSTAR":0.0019050546,"MEAN_MOTION_DOT":0.00047358,"MEAN_MOTION_DDOT":0},{"OBJECT_NAME":"STARLINK-3671","OBJECT_ID":"2022-025S","EPOCH":"2026-02-26T06:36:16.588800","MEAN_MOTION":15.0639893,"ECCENTRICITY":0.00011825,"INCLINATION":53.055,"RA_OF_ASC_NODE":82.1261,"ARG_OF_PERICENTER":89.2489,"MEAN_ANOMALY":270.8635,"EPHEMERIS_TYPE":0,"CLASSIFICATION_TYPE":"U","NORAD_CAT_ID":51972,"ELEMENT_SET_NO":999,"REV_AT_EPOCH":21920,"BSTAR":7.9027081e-5,"MEAN_MOTION_DOT":8.96e-6,"MEAN_MOTION_DDOT":0}]
